{"type": "FeatureCollection", "features": [ {"type": "Feature", "properties": {"norad_id": 37867, "name": "COSMOS 2476 (744)", "group": "gnss", "lat": -24.02509919587567, "lon": -89.35817075184814, "alt_km": 19078.10459874256, "timestamp": "2025-12-25T14:48:25.022594+00:00", "meta": {"OBJECT_NAME": "COSMOS 2476 (744)", "OBJECT_ID": "2011-064A", "EPOCH": "2025-12-24T09:57:47.072160", "MEAN_MOTION": 2.13103925, "ECCENTRICITY": 0.00245084, "INCLINATION": 65.1679, "RA_OF_ASC_NODE": 78.7766, "ARG_OF_PERICENTER": 235.0068, "MEAN_ANOMALY": 129.7601, "EPHEMERIS_TYPE": 0, "CLASSIFICATION_TYPE": "U", "NORAD_CAT_ID": 37867, "ELEMENT_SET_NO": 999, "REV_AT_EPOCH": 11004, "BSTAR": 0, "MEAN_MOTION_DOT": 1e-08, "MEAN_MOTION_DDOT": 0}, "tle": {"line1": "1 37867U 11064A   25358.41512815  .00000001  00000+0  00000+0 0  9992", "line2": "2 37867  65.1679  78.7766 0024508 235.0068 129.7601  2.13103925110049"}}, "geometry": {"type": "Point", "coordinates": [-89.35817075184814, -24.02509919587567]}}, {"type": "Feature", "properties": {"norad_id": 37868, "name": "COSMOS 2477 (745)", "group": "gnss", "lat": 24.98520634148922, "lon": 91.26401685589782, "alt_km": 19175.798937393694, "timestamp": "2025-12-25T14:48:25.022606+00:00", "meta": {"OBJECT_NAME": "COSMOS 2477 (745)", "OBJECT_ID": "2011-064B", "EPOCH": "2025-12-24T15:22:57.950400", "MEAN_MOTION": 2.13103036, "ECCENTRICITY": 0.00215718, "INCLINATION": 65.1748, "RA_OF_ASC_NODE": 78.8466, "ARG_OF_PERICENTER": 235.4688, "MEAN_ANOMALY": 123.4303, "EPHEMERIS_TYPE": 0, "CLASSIFICATION_TYPE": "U", "NORAD_CAT_ID": 37868, "ELEMENT_SET_NO": 999, "REV_AT_EPOCH": 11003, "BSTAR": 0, "MEAN_MOTION_DOT": 1e-08, "MEAN_MOTION_DDOT": 0}, "tle": {"line1": "1 37868U 11064B   25358.64094850  .00000001  00000+0  00000+0 0  9992", "line2": "2 37868  65.1748  78.8466 0021571 235.4688 123.4303  2.13103036110036"}}, "geometry": {"type": "Point", "coordinates": [91.26401685589782, 24.98520634148922]}}, {"type": "Feature", "properties": {"norad_id": 37869, "name": "COSMOS 2475 (743)", "group": "gnss", "lat": -14.668954483848108, "lon": 71.89889977585094, "alt_km": 19137.679331102303, "timestamp": "2025-12-25T14:48:25.022616+00:00", "meta": {"OBJECT_NAME": "COSMOS 2475 (743)", "OBJECT_ID": "2011-064C", "EPOCH": "2025-12-25T05:57:40.330080", "MEAN_MOTION": 2.1310165, "ECCENTRICITY": 0.00267734, "INCLINATION": 65.1818, "RA_OF_ASC_NODE": 78.8463, "ARG_OF_PERICENTER": 249.2296, "MEAN_ANOMALY": 171.5586, "EPHEMERIS_TYPE": 0, "CLASSIFICATION_TYPE": "U", "NORAD_CAT_ID": 37869, "ELEMENT_SET_NO": 999, "REV_AT_EPOCH": 11006, "BSTAR": 0, "MEAN_MOTION_DOT": -1e-08, "MEAN_MOTION_DDOT": 0}, "tle": {"line1": "1 37869U 11064C   25359.24838345 -.00000001  00000+0  00000+0 0  9996", "line2": "2 37869  65.1818  78.8463 0026773 249.2296 171.5586  2.13101650110069"}}, "geometry": {"type": "Point", "coordinates": [71.89889977585094, -14.668954483848108]}}, {"type": "Feature", "properties": {"norad_id": 37948, "name": "BEIDOU-2 IGSO-5 (C10)", "group": "gnss", "lat": 31.611543964287236, "lon": 60.08815557539319, "alt_km": 35747.625892054064, "timestamp": "2025-12-25T14:48:25.022626+00:00", "meta": {"OBJECT_NAME": "BEIDOU-2 IGSO-5 (C10)", "OBJECT_ID": "2011-073A", "EPOCH": "2025-12-24T17:40:34.414752", "MEAN_MOTION": 1.00288414, "ECCENTRICITY": 0.01097165, "INCLINATION": 47.9979, "RA_OF_ASC_NODE": 273.7118, "ARG_OF_PERICENTER": 222.1575, "MEAN_ANOMALY": 316.4289, "EPHEMERIS_TYPE": 0, "CLASSIFICATION_TYPE": "U", "NORAD_CAT_ID": 37948, "ELEMENT_SET_NO": 999, "REV_AT_EPOCH": 5138, "BSTAR": 0, "MEAN_MOTION_DOT": -1.39e-06, "MEAN_MOTION_DDOT": 0}, "tle": {"line1": "1 37948U 11073A   25358.73650943 -.00000139  00000+0  00000+0 0  9995", "line2": "2 37948  47.9979 273.7118 0109716 222.1575 316.4289  1.00288414 51383"}}, "geometry": {"type": "Point", "coordinates": [60.08815557539319, 31.611543964287236]}}, {"type": "Feature", "properties": {"norad_id": 37951, "name": "LUCH 5A (SDCM/PRN 140)", "group": "gnss", "lat": 6.093103629377029, "lon": 123.15431421508802, "alt_km": 35804.30355788803, "timestamp": "2025-12-25T14:48:25.022637+00:00", "meta": {"OBJECT_NAME": "LUCH 5A (SDCM/PRN 140)", "OBJECT_ID": "2011-074B", "EPOCH": "2025-12-24T22:27:17.315712", "MEAN_MOTION": 1.00268947, "ECCENTRICITY": 0.0005251, "INCLINATION": 8.3088, "RA_OF_ASC_NODE": 76.4049, "ARG_OF_PERICENTER": 192.019, "MEAN_ANOMALY": 329.1245, "EPHEMERIS_TYPE": 0, "CLASSIFICATION_TYPE": "U", "NORAD_CAT_ID": 37951, "ELEMENT_SET_NO": 999, "REV_AT_EPOCH": 5130, "BSTAR": 0, "MEAN_MOTION_DOT": -3.1e-07, "MEAN_MOTION_DDOT": 0}, "tle": {"line1": "1 37951U 11074B   25358.93561708 -.00000031  00000+0  00000+0 0  9993", "line2": "2 37951   8.3088  76.4049 0005251 192.0190 329.1245  1.00268947 51301"}}, "geometry": {"type": "Point", "coordinates": [123.15431421508802, 6.093103629377029]}}, {"type": "Feature", "properties": {"norad_id": 38091, "name": "BEIDOU-2 G5 (C05)", "group": "gnss", "lat": -2.582247348308468, "lon": 15.388407746184363, "alt_km": 35770.334526041115, "timestamp": "2025-12-25T14:48:25.022648+00:00", "meta": {"OBJECT_NAME": "BEIDOU-2 G5 (C05)", "OBJECT_ID": "2012-008A", "EPOCH": "2025-12-24T23:39:02.942208", "MEAN_MOTION": 1.00269891, "ECCENTRICITY": 0.00130967, "INCLINATION": 3.1377, "RA_OF_ASC_NODE": 70.6643, "ARG_OF_PERICENTER": 232.2116, "MEAN_ANOMALY": 204.3729, "EPHEMERIS_TYPE": 0, "CLASSIFICATION_TYPE": "U", "NORAD_CAT_ID": 38091, "ELEMENT_SET_NO": 999, "REV_AT_EPOCH": 5062, "BSTAR": 0, "MEAN_MOTION_DOT": 7.7e-07, "MEAN_MOTION_DDOT": 0}, "tle": {"line1": "1 38091U 12008A   25358.98545072  .00000077  00000+0  00000+0 0  9997", "line2": "2 38091   3.1377  70.6643 0013096 232.2116 204.3729  1.00269891 50622"}}, "geometry": {"type": "Point", "coordinates": [15.388407746184363, -2.582247348308468]}}, {"type": "Feature", "properties": {"norad_id": 38250, "name": "BEIDOU-2 M3 (C11)", "group": "gnss", "lat": -55.91759023428191, "lon": -139.78738695519945, "alt_km": 21467.13843941532, "timestamp": "2025-12-25T14:48:25.022659+00:00", "meta": {"OBJECT_NAME": "BEIDOU-2 M3 (C11)", "OBJECT_ID": "2012-018A", "EPOCH": "2025-12-24T03:22:03.617760", "MEAN_MOTION": 1.86230154, "ECCENTRICITY": 0.00241099, "INCLINATION": 55.9106, "RA_OF_ASC_NODE": 310.7747, "ARG_OF_PERICENTER": 275.3713, "MEAN_ANOMALY": 84.3565, "EPHEMERIS_TYPE": 0, "CLASSIFICATION_TYPE": "U", "NORAD_CAT_ID": 38250, "ELEMENT_SET_NO": 999, "REV_AT_EPOCH": 9268, "BSTAR": 0, "MEAN_MOTION_DOT": -5.3e-07, "MEAN_MOTION_DDOT": 0}, "tle": {"line1": "1 38250U 12018A   25358.14031965 -.00000053  00000+0  00000+0 0  9999", "line2": "2 38250  55.9106 310.7747 0024109 275.3713  84.3565  1.86230154 92685"}}, "geometry": {"type": "Point", "coordinates": [-139.78738695519945, -55.91759023428191]}}, {"type": "Feature", "properties": {"norad_id": 38251, "name": "BEIDOU-2 M4 (C12)", "group": "gnss", "lat": -35.4655830082686, "lon": -78.99655302997358, "alt_km": 21498.24093490311, "timestamp": "2025-12-25T14:48:25.022669+00:00", "meta": {"OBJECT_NAME": "BEIDOU-2 M4 (C12)", "OBJECT_ID": "2012-018B", "EPOCH": "2025-12-25T03:30:42.765120", "MEAN_MOTION": 1.86229477, "ECCENTRICITY": 0.0014906, "INCLINATION": 55.8105, "RA_OF_ASC_NODE": 309.9689, "ARG_OF_PERICENTER": 280.9074, "MEAN_ANOMALY": 78.9304, "EPHEMERIS_TYPE": 0, "CLASSIFICATION_TYPE": "U", "NORAD_CAT_ID": 38251, "ELEMENT_SET_NO": 999, "REV_AT_EPOCH": 9270, "BSTAR": 0, "MEAN_MOTION_DOT": -5.3e-07, "MEAN_MOTION_DDOT": 0}, "tle": {"line1": "1 38251U 12018B   25359.14632830 -.00000053  00000+0  00000+0 0  9999", "line2": "2 38251  55.8105 309.9689 0014906 280.9074  78.9304  1.86229477 92704"}}, "geometry": {"type": "Point", "coordinates": [-78.99655302997358, -35.4655830082686]}}, {"type": "Feature", "properties": {"norad_id": 38652, "name": "SES-5 (EGNOS/PRN 136)", "group": "gnss", "lat": 0.001803977073276912, "lon": -38.53193243240448, "alt_km": 35781.598155089094, "timestamp": "2025-12-25T14:48:25.022682+00:00", "meta": {"OBJECT_NAME": "SES-5 (EGNOS/PRN 136)", "OBJECT_ID": "2012-036A", "EPOCH": "2025-12-25T06:14:32.563968", "MEAN_MOTION": 1.0027015, "ECCENTRICITY": 0.00018833, "INCLINATION": 0.0572, "RA_OF_ASC_NODE": 305.6336, "ARG_OF_PERICENTER": 323.875, "MEAN_ANOMALY": 283.131, "EPHEMERIS_TYPE": 0, "CLASSIFICATION_TYPE": "U", "NORAD_CAT_ID": 38652, "ELEMENT_SET_NO": 999, "REV_AT_EPOCH": 4271, "BSTAR": 0, "MEAN_MOTION_DOT": 5.5e-07, "MEAN_MOTION_DDOT": 0}, "tle": {"line1": "1 38652U 12036A   25359.26009912  .00000055  00000+0  00000+0 0  9997", "line2": "2 38652   0.0572 305.6336 0001883 323.8750 283.1310  1.00270150 42712"}}, "geometry": {"type": "Point", "coordinates": [-38.53193243240448, 0.001803977073276912]}}, {"type": "Feature", "properties": {"norad_id": 38775, "name": "BEIDOU-2 M6 (C14)", "group": "gnss", "lat": 25.050740414731994, "lon": -129.4310793374534, "alt_km": 21556.174351452224, "timestamp": "2025-12-25T14:48:25.022692+00:00", "meta": {"OBJECT_NAME": "BEIDOU-2 M6 (C14)", "OBJECT_ID": "2012-050B", "EPOCH": "2025-12-24T07:41:05.368128", "MEAN_MOTION": 1.86230801, "ECCENTRICITY": 0.00114872, "INCLINATION": 56.388, "RA_OF_ASC_NODE": 68.6832, "ARG_OF_PERICENTER": 343.1884, "MEAN_ANOMALY": 16.8281, "EPHEMERIS_TYPE": 0, "CLASSIFICATION_TYPE": "U", "NORAD_CAT_ID": 38775, "ELEMENT_SET_NO": 999, "REV_AT_EPOCH": 9005, "BSTAR": 0, "MEAN_MOTION_DOT": -2.4e-07, "MEAN_MOTION_DDOT": 0}, "tle": {"line1": "1 38775U 12050B   25358.32020102 -.00000024  00000+0  00000+0 0  9996", "line2": "2 38775  56.3880  68.6832 0011487 343.1884  16.8281  1.86230801 90056"}}, "geometry": {"type": "Point", "coordinates": [-129.4310793374534, 25.050740414731994]}}]}